HELIOS 1B               
1 25977U 99064A   26070.73161132  .00002334  00000+0  26250-3 0  9996
2 25977  98.1686 333.0347 0002450  72.3561 287.7921 14.87708670685562
TERRA                   
1 25994U 99068A   26070.84881892  .00000482  00000+0  10721-3 0  9991
2 25994  97.9590 124.2010 0002831 146.4914 329.8211 14.61017091395398
SL-16 R/B               
1 26070U 00006B   26070.49614854 -.00000152  00000+0 -52847-4 0  9996
2 26070  71.0007  94.0389 0016670 187.5909 172.4964 14.15825550348817
TITAN 4B R/B            
1 26474U 00047B   26070.88304660  .00004816  00000+0  30209-3 0  9999
2 26474  67.9902  34.3425 0038654  32.8249 327.5289 15.09586938393244
ENVISAT                 
1 27386U 02009A   26070.90789965  .00000151  00000+0  62897-4 0  9997
2 27386  98.3731  24.4524 0001309  82.6592 345.4838 14.39037835259492
IDEFIX & ARIANE 42P R/B 
1 27422U 02021B   26070.80322123  .00000338  00000+0  14480-3 0  9991
2 27422  98.5869   9.3842 0011697 175.9687 184.1592 14.31027862244326
AQUA                    
1 27424U 02022A   26070.87276558  .00001196  00000+0  24842-3 0  9997
2 27424  98.4177  38.2774 0000560  88.8295 322.2995 14.61982658269053
CZ-4B R/B               
1 27432U 02024C   26070.78004838  .00000047  00000+0  47285-4 0  9999
2 27432  98.8835 124.1762 0050384  18.2883  92.6866 14.14547983229538
MIDORI II (ADEOS-II)    
1 27597U 02056A   26070.83384285  .00000364  00000+0  16095-3 0  9995
2 27597  98.7769  29.3261 0001513  40.5495 319.5799 14.29286960210607
H-2A R/B                
1 27601U 02056E   26070.86961987  .00000303  00000+0  12062-3 0  9997
2 27601  98.3205  31.1522 0070632 154.2148 261.2108 14.33762249214426
CZ-4B R/B               
1 28059U 03049C   26070.85916199  .00000429  00000+0  11009-3 0  9991
2 28059  98.6879  65.8490 0047333 224.1160 135.6256 14.55022301186917
CZ-2C R/B               
1 28222U 04012C   26070.71964995  .00064754  00000+0  66079-3 0  9994
2 28222  97.7222 136.2046 0012932 301.4679  58.5315 15.64774872204594
SL-16 R/B               
1 28353U 04021B   26070.86123671 -.00000265  00000+0 -11320-3 0  9991
2 28353  70.9996 227.9350 0004176   6.1397 353.9776 14.14597110123149
CZ-4B R/B               
1 28415U 04035C   26070.61068045  .00008783  00000+0  30919-3 0  9997
2 28415  97.3502 104.8303 0030743 324.4114  35.5075 15.29101543180200
CZ-2C R/B               
1 28480U 04046B   26070.72937510  .00000128  00000+0  62460-4 0  9997
2 28480  98.1980 345.5864 0139979 148.4396 212.5277 14.26992768108792
ARIANE 5 R/B            
1 28499U 04049H   26070.72107428  .00000932  00000+0  10920-3 0  9993
2 28499  98.2630 239.2540 0083807 345.3168  14.5613 14.85270084146092
CZ-2D R/B               
1 28738U 05024B   26070.76169704  .00050111  00000+0  61032-3 0  9996
2 28738  97.3602  85.9840 0005547  41.1425 319.0250 15.60354217140109
